ONEWEB-0230             
1 48769U 21045C   24017.58426222  .00000823  00000+0  21528-2 0  9993
2 48769  87.8978  74.7454 0001758 102.1954 257.9374 13.15547055128753
ONEWEB-0237             
1 48770U 21045D   24017.57315466 -.00000074  00000+0 -23196-3 0  9995
2 48770  87.8982  74.6705 0002314 104.9200 255.2187 13.15547552128475
ONEWEB-0235             
1 48771U 21045E   24017.62385971  .00000014  00000+0  19717-5 0  9998
2 48771  87.8973  74.6827 0002570 110.2763 249.8644 13.15548556128471
ONEWEB-0242             
1 48772U 21045F   24017.61752404  .00000090  00000+0  20571-3 0  9999
2 48772  87.8973  74.6737 0001984 106.4448 253.6900 13.15548411128510
ONEWEB-0241             
1 48773U 21045G   24017.60485094  .00000119  00000+0  28107-3 0  9992
2 48773  87.8982  74.7091 0002271  94.5910 265.5479 13.15547642128424
ONEWEB-0243             
1 48774U 21045H   24017.56047705 -.00000171  00000+0 -48872-3 0  9992
2 48774  87.8983  74.6756 0002227 109.3988 250.7383 13.15548767128445
ONEWEB-0222             
1 48775U 21045J   24017.62702220  .00000010  00000+0 -68482-5 0  9992
2 48775  87.8972  74.6857 0002191  99.5124 260.6254 13.15546610128495
ONEWEB-0244             
1 48776U 21045K   24017.57000528 -.00000084  00000+0 -25594-3 0  9996
2 48776  87.8971  74.6787 0001877 109.2760 250.8573 13.15547184129057
